GLOBALSTAR M094 [+]     
1 39074U 13005C   24014.17514671 -.00000081  00000+0  12690-3 0  9995
2 39074  51.9981 325.4006 0000281  66.6729 293.4167 12.62270918506725
GLOBALSTAR M096 [+]     
1 39075U 13005D   24014.18856586 -.00000090  00000+0  74640-4 0  9995
2 39075  52.0095  13.4688 0000344 155.4461 204.6422 12.62267576505974
GLOBALSTAR M078 [+]     
1 39076U 13005E   24013.52868267 -.00000213  00000+0 -60981-3 0  9992
2 39076  51.9879 100.6944 0001613 110.3730 249.7309 12.62256802504160
GLOBALSTAR M095 [+]     
1 39077U 13005F   24013.39638766 -.00000085  00000+0  10751-3 0  9993
2 39077  51.9802  98.5502 0001361 132.1612 227.9370 12.62272335504001
GLOBALSTAR M087 [+]     
1 52888U 22064A   24014.20770365 -.00000084  00000+0  85164-4 0  9996
2 52888  51.9773  28.7825 0009178 333.0142  27.0280 13.37562438 76787
